{
  "type": "FeatureCollection",
  "features": [
    {
      "type": "Feature",
      "geometry": {
        "type": "Point",
        "coordinates": [
          -76.9296,
          38.8468
        ]
      },
      "properties": {
        "id": "census-annual-pop-by-age-sex-2025",
        "name": "Annual Estimates of the Resident Population by Single Year of Age and Sex for the United States: April 1 2020 to July 1 2025",
        "category": "dataset",
        "tags": [
          "business-finance",
          "children-families",
          "economy",
          "election",
          "prek-12-education",
          "energy-environment"
        ],
        "region": "US",
        "locationLabel": "U.S. Census Bureau headquarters, Suitland, MD (approximate)",
        "sourceUrl": "https://www.census.gov/data/datasets/time-series/demo/popest/2020s-national-detail.html"
      }
    },
    {
      "type": "Feature",
      "geometry": {
        "type": "Point",
        "coordinates": [
          -76.9296,
          38.8468
        ]
      },
      "properties": {
        "id": "census-county-estimates-all-2025",
        "name": "County Estimates All Data 2025",
        "category": "dataset",
        "tags": [
          "energy-environment",
          "population-data"
        ],
        "region": "US",
        "locationLabel": "U.S. Census Bureau headquarters, Suitland, MD (approximate)",
        "sourceUrl": "https://www2.census.gov/programs-surveys/popest/datasets/2020-2025/counties/totals/"
      }
    },
    {
      "type": "Feature",
      "geometry": {
        "type": "Point",
        "coordinates": [
          -76.9296,
          38.8468
        ]
      },
      "properties": {
        "id": "census-state-estimates-all-2025",
        "name": "National State Estimates All Data 2025",
        "category": "dataset",
        "tags": [
          "economy",
          "energy-environment",
          "government-administration",
          "housing-buildings",
          "population-data"
        ],
        "region": "US",
        "locationLabel": "U.S. Census Bureau headquarters, Suitland, MD (approximate)",
        "sourceUrl": "https://www2.census.gov/programs-surveys/popest/datasets/2020-2025/state/totals/"
      }
    },
    {
      "type": "Feature",
      "geometry": {
        "type": "Point",
        "coordinates": [
          -76.9296,
          38.8468
        ]
      },
      "properties": {
        "id": "census-state-pop-change-2020-2025",
        "name": "National State Population Change 2020-2025",
        "category": "dataset",
        "tags": [
          "economy",
          "energy-environment",
          "government-administration",
          "housing-buildings",
          "population-data"
        ],
        "region": "US",
        "locationLabel": "U.S. Census Bureau headquarters, Suitland, MD (approximate)",
        "sourceUrl": "https://www2.census.gov/programs-surveys/popest/datasets/2020-2025/state/totals/"
      }
    },
    {
      "type": "Feature",
      "geometry": {
        "type": "Point",
        "coordinates": [
          -77.0303,
          38.8882
        ]
      },
      "properties": {
        "id": "usda-milk-production",
        "name": "U.S. Milk Production and Related Data",
        "category": "dataset",
        "tags": [
          "agriculture",
          "economy",
          "energy-environment",
          "government-administration",
          "health-social-services",
          "housing-buildings"
        ],
        "region": "US",
        "locationLabel": "USDA headquarters, Washington, DC (approximate)",
        "sourceUrl": "https://www.ers.usda.gov/data-products/dairy-data"
      }
    }
  ]
}
